[
    {"name":"سطيف", "zip_code":19},
    {"name":"المسيلة", "zip_code":28},
    {"name":"الجزائر", "zip_code":16},
    {"name":"البليدة", "zip_code":9},
    {"name":"البويرة", "zip_code":10},
    {"name":"بجاية", "zip_code":6},
    {"name":"تيزي وزو", "zip_code":15},
    {"name":"تلمسان", "zip_code":13},
    {"name":"وهران", "zip_code":31},
    {"name":"تمنراست", "zip_code":11},
    {"name":"بسكرة", "zip_code":7},
    {"name":"باتنة", "zip_code":5},
    {"name":"سكيكدة", "zip_code":21},
    {"name":"عنابة", "zip_code":23},
    {"name":"قسنطينة", "zip_code":25},
    {"name":"خنشلة", "zip_code":40},
    {"name":"تيبازة", "zip_code":42},
    {"name":"الجلفة", "zip_code":17},
    {"name":"جيجل", "zip_code":18},
    {"name":"بومرداس", "zip_code":35},
    {"name":"ميلة", "zip_code":43},
    {"name":"عين الدفلى", "zip_code":44},
    {"name":"النعامة", "zip_code":45},
    {"name":"عين تموشنت", "zip_code":46},
    {"name":"غرداية", "zip_code":47},
    {"name":"غيليزان", "zip_code":48},
    {"name":"تميمون", "zip_code":49},
    {"name":"برج باجي مختار", "zip_code":50},
    {"name":"أولاد جلال", "zip_code":51},
    {"name":"بني عباس", "zip_code":52},
    {"name":"إن صالح", "zip_code":53},
    {"name":"عين قزام", "zip_code":54},
    {"name":"توقرت", "zip_code":55},
    {"name":"جانت", "zip_code":56},
    {"name":"المغير", "zip_code":57},
    {"name":"المنيعة", "zip_code":58},
    {"name":"سوق اهراس", "zip_code":41},
    {"name":"الواد", "zip_code":39},
    {"name":"تيسمسيلت", "zip_code":38},
    {"name":"الطارف", "zip_code":36},
    {"name":"تندوف", "zip_code":37},
    {"name":"البيض", "zip_code":32},
    {"name":"إليزي", "zip_code":33},
    {"name":"المدية", "zip_code":26},
    {"name":"مستغانم", "zip_code":27},
    {"name":"معسكر", "zip_code":29},
    {"name":"ورقلة", "zip_code":30},
    {"name":"قالمة", "zip_code":24},
    {"name":"سيدي بلعباس", "zip_code":22},
    {"name":"سعيدة", "zip_code":20},
    {"name":"تيارت", "zip_code":14},
    {"name":"تبسة", "zip_code":12},
    {"name":"بشار", "zip_code":8},
    {"name":"أم البواقي", "zip_code":4},
    {"name":"الأغواط", "zip_code":3},
    {"name":"الشلف", "zip_code":2},
    {"name":"أدرار", "zip_code":1},
    {"name":"برج بو عريريج", "zip_code":34}
]



